start=new Date('2021-09-22T00:00:00.000Z').valueOf();
sats=[{"EPHEMERIS_TYPE":"0","OBJECT_TYPE":"PAYLOAD","OBJECT_NAME":"STARLINK-2544","ELEMENT_SET_NO":"999","INCLINATION":"53.0553","ARG_OF_PERICENTER":"68.6043","MEAN_MOTION_DOT":"-0.00020470","MEAN_MOTION_DDOT":"0.0000000000000","REF_FRAME":"TEME","EPOCH":"2021-09-21T22:00:00.999936","GP_ID":"185188430","MEAN_MOTION":"15.06401866","FILE":"3122258","CENTER_NAME":"EARTH","ECCENTRICITY":"0.00017420","LAUNCH_DATE":"2021-04-29","PERIOD":"95.592","MEAN_ELEMENT_THEORY":"SGP4","SITE":"AFETR","REV_AT_EPOCH":"360","RCS_SIZE":"LARGE","APOAPSIS":"548.414","COUNTRY_CODE":"US","RA_OF_ASC_NODE":"197.9563","BSTAR":"-0.00135920000000","TLE_LINE2":"2 48297  53.0553 197.9563 0001742  68.6043 196.4906 15.06401866  3605","OBJECT_ID":"2021-036X","TIME_SYSTEM":"UTC","SEMIMAJOR_AXIS":"6925.343","PERIAPSIS":"546.001","NORAD_CAT_ID":"48297","CLASSIFICATION_TYPE":"U","MEAN_ANOMALY":"196.4906","TLE_LINE1":"1 48297U 21036X   21264.91667824 -.00020470  00000-0 -13592-2 0  9997","DECAY_DATE":null},{"REV_AT_EPOCH":"360","RCS_SIZE":"LARGE","APOAPSIS":"548.554","RA_OF_ASC_NODE":"197.9554","COUNTRY_CODE":"US","BSTAR":"-0.00141550000000","TLE_LINE2":"2 48298  53.0552 197.9554 0001947  73.1023 211.9768 15.06402547  3607","OBJECT_ID":"2021-036Y","PERIAPSIS":"545.857","SEMIMAJOR_AXIS":"6925.341","TIME_SYSTEM":"UTC","CLASSIFICATION_TYPE":"U","NORAD_CAT_ID":"48298","MEAN_ANOMALY":"211.9768","TLE_LINE1":"1 48298U 21036Y   21264.91667824 -.00021305  00000-0 -14155-2 0  9992","DECAY_DATE":null,"EPHEMERIS_TYPE":"0","OBJECT_TYPE":"PAYLOAD","OBJECT_NAME":"STARLINK-2559","ELEMENT_SET_NO":"999","INCLINATION":"53.0552","ARG_OF_PERICENTER":"73.1023","REF_FRAME":"TEME","EPOCH":"2021-09-21T22:00:00.999936","MEAN_MOTION_DOT":"-0.00021305","MEAN_MOTION_DDOT":"0.0000000000000","MEAN_MOTION":"15.06402547","GP_ID":"185189178","FILE":"3122258","CENTER_NAME":"EARTH","ECCENTRICITY":"0.00019470","LAUNCH_DATE":"2021-04-29","PERIOD":"95.592","MEAN_ELEMENT_THEORY":"SGP4","SITE":"AFETR"},{"RA_OF_ASC_NODE":"197.9347","COUNTRY_CODE":"US","TLE_LINE2":"2 48299  53.0566 197.9347 0001901  75.1553 229.9647 15.06407918  3605","BSTAR":"-0.00118510000000","OBJECT_ID":"2021-036Z","REV_AT_EPOCH":"360","RCS_SIZE":"LARGE","APOAPSIS":"548.506","TLE_LINE1":"1 48299U 21036Z   21264.91667824 -.00017894  00000-0 -11851-2 0  9991","DECAY_DATE":null,"PERIAPSIS":"545.873","SEMIMAJOR_AXIS":"6925.324","TIME_SYSTEM":"UTC","CLASSIFICATION_TYPE":"U","NORAD_CAT_ID":"48299","MEAN_ANOMALY":"229.9647","ARG_OF_PERICENTER":"75.1553","EPOCH":"2021-09-21T22:00:00.999936","REF_FRAME":"TEME","MEAN_MOTION_DDOT":"0.0000000000000","MEAN_MOTION_DOT":"-0.00017894","MEAN_MOTION":"15.06407918","GP_ID":"185189432","FILE":"3122258","EPHEMERIS_TYPE":"0","OBJECT_TYPE":"PAYLOAD","OBJECT_NAME":"STARLINK-2557","INCLINATION":"53.0566","ELEMENT_SET_NO":"999","PERIOD":"95.592","MEAN_ELEMENT_THEORY":"SGP4","SITE":"AFETR","CENTER_NAME":"EARTH","ECCENTRICITY":"0.00019010","LAUNCH_DATE":"2021-04-29"},{"RCS_SIZE":"LARGE","APOAPSIS":"548.308","REV_AT_EPOCH":"2306","TLE_LINE2":"2 48300  53.0627 209.4147 0001574  51.2925 308.8205 15.06398417 23069","BSTAR":"-0.00004627400000","OBJECT_ID":"2021-036AA","RA_OF_ASC_NODE":"209.4147","COUNTRY_CODE":"US","CLASSIFICATION_TYPE":"U","NORAD_CAT_ID":"48300","MEAN_ANOMALY":"308.8205","PERIAPSIS":"546.128","SEMIMAJOR_AXIS":"6925.353","TIME_SYSTEM":"UTC","DECAY_DATE":null,"TLE_LINE1":"1 48300U 21036AA  21264.58677244 -.00000971  00000-0 -46274-4 0  9991","OBJECT_NAME":"STARLINK-2538","ELEMENT_SET_NO":"999","INCLINATION":"53.0627","EPHEMERIS_TYPE":"0","OBJECT_TYPE":"PAYLOAD","MEAN_MOTION":"15.06398417","GP_ID":"185160742","FILE":"3121909","ARG_OF_PERICENTER":"51.2925","REF_FRAME":"TEME","EPOCH":"2021-09-21T14:04:57.138816","MEAN_MOTION_DOT":"-0.00000971","MEAN_MOTION_DDOT":"0.0000000000000","ECCENTRICITY":"0.00015740","LAUNCH_DATE":"2021-04-29","CENTER_NAME":"EARTH","MEAN_ELEMENT_THEORY":"SGP4","SITE":"AFETR","PERIOD":"95.592"},{"OBJECT_ID":"2021-036AB","TLE_LINE2":"2 48301  53.0514 209.4514 0001586  56.7543 303.3598 15.06392512 22471","BSTAR":"0.00008288100000","RA_OF_ASC_NODE":"209.4514","COUNTRY_CODE":"US","APOAPSIS":"548.335","RCS_SIZE":"LARGE","REV_AT_EPOCH":"2247","DECAY_DATE":null,"TLE_LINE1":"1 48301U 21036AB  21264.58308836  .00000953  00000-0  82881-4 0  9992","MEAN_ANOMALY":"303.3598","CLASSIFICATION_TYPE":"U","NORAD_CAT_ID":"48301","PERIAPSIS":"546.138","TIME_SYSTEM":"UTC","SEMIMAJOR_AXIS":"6925.372","FILE":"3121847","MEAN_MOTION":"15.06392512","GP_ID":"185158930","EPOCH":"2021-09-21T13:59:38.834304","REF_FRAME":"TEME","MEAN_MOTION_DDOT":"0.0000000000000","MEAN_MOTION_DOT":"0.00000953","ARG_OF_PERICENTER":"56.7543","INCLINATION":"53.0514","ELEMENT_SET_NO":"999","OBJECT_NAME":"STARLINK-2537","OBJECT_TYPE":"PAYLOAD","EPHEMERIS_TYPE":"0","MEAN_ELEMENT_THEORY":"SGP4","SITE":"AFETR","PERIOD":"95.593","LAUNCH_DATE":"2021-04-29","ECCENTRICITY":"0.00015860","CENTER_NAME":"EARTH"},{"TLE_LINE1":"1 48302U 21036AC  21264.57940873 -.00000631  00000-0 -23486-4 0  9996","DECAY_DATE":null,"SEMIMAJOR_AXIS":"6925.370","TIME_SYSTEM":"UTC","PERIAPSIS":"546.109","MEAN_ANOMALY":"297.9793","NORAD_CAT_ID":"48302","CLASSIFICATION_TYPE":"U","COUNTRY_CODE":"US","RA_OF_ASC_NODE":"209.4571","OBJECT_ID":"2021-036AC","BSTAR":"-0.00002348600000","TLE_LINE2":"2 48302  53.0536 209.4571 0001626  62.1360 297.9793 15.06393057 23057","REV_AT_EPOCH":"2305","APOAPSIS":"548.361","RCS_SIZE":"LARGE","PERIOD":"95.593","SITE":"AFETR","MEAN_ELEMENT_THEORY":"SGP4","CENTER_NAME":"EARTH","LAUNCH_DATE":"2021-04-29","ECCENTRICITY":"0.00016260","MEAN_MOTION_DOT":"-0.00000631","MEAN_MOTION_DDOT":"0.0000000000000","EPOCH":"2021-09-21T13:54:20.914272","REF_FRAME":"TEME","ARG_OF_PERICENTER":"62.1360","FILE":"3121936","GP_ID":"185161053","MEAN_MOTION":"15.06393057","OBJECT_TYPE":"PAYLOAD","EPHEMERIS_TYPE":"0","INCLINATION":"53.0536","ELEMENT_SET_NO":"999","OBJECT_NAME":"STARLINK-2556"},{"REV_AT_EPOCH":"2247","RCS_SIZE":"LARGE","APOAPSIS":"548.333","RA_OF_ASC_NODE":"209.4766","COUNTRY_CODE":"US","BSTAR":"-0.00004768000000","TLE_LINE2":"2 48303  53.0543 209.4766 0001587  48.7678 311.3448 15.06393252 22470","OBJECT_ID":"2021-036AD","PERIAPSIS":"546.135","TIME_SYSTEM":"UTC","SEMIMAJOR_AXIS":"6925.369","CLASSIFICATION_TYPE":"U","NORAD_CAT_ID":"48303","MEAN_ANOMALY":"311.3448","TLE_LINE1":"1 48303U 21036AD  21264.57572448 -.00000992  00000-0 -47680-4 0  9998","DECAY_DATE":null,"EPHEMERIS_TYPE":"0","OBJECT_TYPE":"PAYLOAD","OBJECT_NAME":"STARLINK-2530","ELEMENT_SET_NO":"999","INCLINATION":"53.0543","ARG_OF_PERICENTER":"48.7678","REF_FRAME":"TEME","EPOCH":"2021-09-21T13:49:02.595072","MEAN_MOTION_DDOT":"0.0000000000000","MEAN_MOTION_DOT":"-0.00000992","MEAN_MOTION":"15.06393252","GP_ID":"185158497","FILE":"3121847","CENTER_NAME":"EARTH","ECCENTRICITY":"0.00015870","LAUNCH_DATE":"2021-04-29","PERIOD":"95.593","MEAN_ELEMENT_THEORY":"SGP4","SITE":"AFETR"},{"NORAD_CAT_ID":"48304","CLASSIFICATION_TYPE":"U","MEAN_ANOMALY":"307.5797","TIME_SYSTEM":"UTC","SEMIMAJOR_AXIS":"6925.372","PERIAPSIS":"546.051","DECAY_DATE":null,"TLE_LINE1":"1 48304U 21036AE  21264.57204402 -.00001177  00000-0 -60117-4 0  9997","RCS_SIZE":"LARGE","APOAPSIS":"548.422","REV_AT_EPOCH":"2306","TLE_LINE2":"2 48304  53.0550 209.4942 0001712  52.5348 307.5797 15.06392481 23065","BSTAR":"-0.00006011700000","OBJECT_ID":"2021-036AE","COUNTRY_CODE":"US","RA_OF_ASC_NODE":"209.4942","ECCENTRICITY":"0.00017120","LAUNCH_DATE":"2021-04-29","CENTER_NAME":"EARTH","MEAN_ELEMENT_THEORY":"SGP4","SITE":"AFETR","PERIOD":"95.593","OBJECT_NAME":"STARLINK-2524","ELEMENT_SET_NO":"999","INCLINATION":"53.0550","EPHEMERIS_TYPE":"0","OBJECT_TYPE":"PAYLOAD","GP_ID":"185161591","MEAN_MOTION":"15.06392481","FILE":"3121937","ARG_OF_PERICENTER":"52.5348","MEAN_MOTION_DDOT":"0.0000000000000","MEAN_MOTION_DOT":"-0.00001177","EPOCH":"2021-09-21T13:43:44.603328","REF_FRAME":"TEME"},{"TLE_LINE1":"1 48305U 21036AF  21264.56835414 -.00000496  00000-0 -14388-4 0  9992","DECAY_DATE":null,"TIME_SYSTEM":"UTC","SEMIMAJOR_AXIS":"6925.360","PERIAPSIS":"545.864","NORAD_CAT_ID":"48305","CLASSIFICATION_TYPE":"U","MEAN_ANOMALY":"305.7531","COUNTRY_CODE":"US","RA_OF_ASC_NODE":"209.5066","TLE_LINE2":"2 48305  53.0554 209.5066 0001965  54.3641 305.7531 15.06396237 23063","BSTAR":"-0.00001438800000","OBJECT_ID":"2021-036AF","REV_AT_EPOCH":"2306","RCS_SIZE":"LARGE","APOAPSIS":"548.586","PERIOD":"95.592","MEAN_ELEMENT_THEORY":"SGP4","SITE":"AFETR","CENTER_NAME":"EARTH","ECCENTRICITY":"0.00019650","LAUNCH_DATE":"2021-04-29","ARG_OF_PERICENTER":"54.3641","MEAN_MOTION_DDOT":"0.0000000000000","MEAN_MOTION_DOT":"-0.00000496","REF_FRAME":"TEME","EPOCH":"2021-09-21T13:38:25.797696","GP_ID":"185161590","MEAN_MOTION":"15.06396237","FILE":"3121937","EPHEMERIS_TYPE":"0","OBJECT_TYPE":"PAYLOAD","OBJECT_NAME":"STARLINK-2519","INCLINATION":"53.0554","ELEMENT_SET_NO":"999"},{"LAUNCH_DATE":"2021-04-29","ECCENTRICITY":"0.00017230","CENTER_NAME":"EARTH","SITE":"AFETR","MEAN_ELEMENT_THEORY":"SGP4","PERIOD":"95.593","ELEMENT_SET_NO":"999","INCLINATION":"53.0557","OBJECT_NAME":"STARLINK-2523","OBJECT_TYPE":"PAYLOAD","EPHEMERIS_TYPE":"0","FILE":"3121938","GP_ID":"185161599","MEAN_MOTION":"15.06390361","MEAN_MOTION_DDOT":"0.0000000000000","MEAN_MOTION_DOT":"-0.00001169","EPOCH":"2021-09-21T13:33:07.697088","REF_FRAME":"TEME","ARG_OF_PERICENTER":"57.3839","MEAN_ANOMALY":"302.7316","NORAD_CAT_ID":"48306","CLASSIFICATION_TYPE":"U","SEMIMAJOR_AXIS":"6925.378","TIME_SYSTEM":"UTC","PERIAPSIS":"546.050","DECAY_DATE":null,"TLE_LINE1":"1 48306U 21036AG  21264.56467242 -.00001169  00000-0 -59617-4 0  9995","APOAPSIS":"548.436","RCS_SIZE":"LARGE","REV_AT_EPOCH":"2306","OBJECT_ID":"2021-036AG","TLE_LINE2":"2 48306  53.0557 209.5290 0001723  57.3839 302.7316 15.06390361 23060","BSTAR":"-0.00005961700000","COUNTRY_CODE":"US","RA_OF_ASC_NODE":"209.5290"}];
